{
  "type": "FeatureCollection",
  "features": [
    {
      "type": "Feature",
      "properties": {
        "norad_id": 34678,
        "name": "COSMOS 2251 DEB",
        "group": "cosmos-2251-debris",
        "lat": 54.822721262727796,
        "lon": 46.830007338489835,
        "alt_km": 769.321649641257,
        "timestamp": "2025-12-03T06:58:43.636934+00:00",
        "meta_object_name": "COSMOS 2251 DEB",
        "meta_object_id": "1993-036XY",
        "meta_epoch": "2025-12-02T14:30:52.331904",
        "meta_mean_motion": 14.30062326,
        "meta_eccentricity": 0.00242442,
        "meta_inclination": 74.0384,
        "meta_ra_of_asc_node": 24.1189,
        "meta_arg_of_pericenter": 76.5612,
        "meta_mean_anomaly": 51.4839,
        "meta_ephemeris_type": 0,
        "meta_classification_type": "U",
        "meta_norad_cat_id": 34678,
        "meta_element_set_no": 999,
        "meta_rev_at_epoch": 87234,
        "meta_bstar": 4.1632443e-05,
        "meta_mean_motion_dot": 8.2e-07,
        "meta_mean_motion_ddot": 0,
        "tle_line1": "1 34678U 93036XY  25336.60477236  .00000082  00000+0  41632-4 0  9992",
        "tle_line2": "2 34678  74.0384  24.1189 0024244  76.5612  51.4839 14.30062326872345"
      },
      "geometry": {
        "type": "Point",
        "coordinates": [
          46.830007338489835,
          54.822721262727796
        ]
      }
    },
    {
      "type": "Feature",
      "properties": {
        "norad_id": 34680,
        "name": "COSMOS 2251 DEB",
        "group": "cosmos-2251-debris",
        "lat": 23.597451753029677,
        "lon": 155.07627008590424,
        "alt_km": 694.9053655038406,
        "timestamp": "2025-12-03T06:58:43.636945+00:00",
        "meta_object_name": "COSMOS 2251 DEB",
        "meta_object_id": "1993-036YA",
        "meta_epoch": "2025-12-02T11:16:46.526880",
        "meta_mean_motion": 14.6043687,
        "meta_eccentricity": 0.00070971,
        "meta_inclination": 74.0418,
        "meta_ra_of_asc_node": 149.4617,
        "meta_arg_of_pericenter": 243.0574,
        "meta_mean_anomaly": 147.946,
        "meta_ephemeris_type": 0,
        "meta_classification_type": "U",
        "meta_norad_cat_id": 34680,
        "meta_element_set_no": 999,
        "meta_rev_at_epoch": 88178,
        "meta_bstar": 0.0013755581,
        "meta_mean_motion_dot": 6.644e-05,
        "meta_mean_motion_ddot": 0,
        "tle_line1": "1 34680U 93036YA  25336.46998295  .00006644  00000+0  13756-2 0  9996",
        "tle_line2": "2 34680  74.0418 149.4617 0007097 243.0574 147.9460 14.60436870881789"
      },
      "geometry": {
        "type": "Point",
        "coordinates": [
          155.07627008590424,
          23.597451753029677
        ]
      }
    },
    {
      "type": "Feature",
      "properties": {
        "norad_id": 34681,
        "name": "COSMOS 2251 DEB",
        "group": "cosmos-2251-debris",
        "lat": -27.637511370484898,
        "lon": 137.67426550590667,
        "alt_km": 642.6144934679933,
        "timestamp": "2025-12-03T06:58:43.636955+00:00",
        "meta_object_name": "COSMOS 2251 DEB",
        "meta_object_id": "1993-036YB",
        "meta_epoch": "2025-12-02T16:15:31.858848",
        "meta_mean_motion": 14.82806504,
        "meta_eccentricity": 0.0025705,
        "meta_inclination": 74.0621,
        "meta_ra_of_asc_node": 310.2796,
        "meta_arg_of_pericenter": 8.6173,
        "meta_mean_anomaly": 167.56,
        "meta_ephemeris_type": 0,
        "meta_classification_type": "U",
        "meta_norad_cat_id": 34681,
        "meta_element_set_no": 999,
        "meta_rev_at_epoch": 89121,
        "meta_bstar": 0.0019721,
        "meta_mean_motion_dot": 0.0001605,
        "meta_mean_motion_ddot": 0,
        "tle_line1": "1 34681U 93036YB  25336.67745207  .00016050  00000+0  19721-2 0  9993",
        "tle_line2": "2 34681  74.0621 310.2796 0025705   8.6173 167.5600 14.82806504891210"
      },
      "geometry": {
        "type": "Point",
        "coordinates": [
          137.67426550590667,
          -27.637511370484898
        ]
      }
    },
    {
      "type": "Feature",
      "properties": {
        "norad_id": 34682,
        "name": "COSMOS 2251 DEB",
        "group": "cosmos-2251-debris",
        "lat": 60.50002912831908,
        "lon": 131.37049997624763,
        "alt_km": 703.9532195282864,
        "timestamp": "2025-12-03T06:58:43.636966+00:00",
        "meta_object_name": "COSMOS 2251 DEB",
        "meta_object_id": "1993-036YC",
        "meta_epoch": "2025-12-02T09:32:40.157664",
        "meta_mean_motion": 14.5876009,
        "meta_eccentricity": 0.00187596,
        "meta_inclination": 74.0384,
        "meta_ra_of_asc_node": 102.681,
        "meta_arg_of_pericenter": 235.8907,
        "meta_mean_anomaly": 180.8441,
        "meta_ephemeris_type": 0,
        "meta_classification_type": "U",
        "meta_norad_cat_id": 34682,
        "meta_element_set_no": 999,
        "meta_rev_at_epoch": 88535,
        "meta_bstar": 0.0012160177,
        "meta_mean_motion_dot": 5.669e-05,
        "meta_mean_motion_ddot": 0,
        "tle_line1": "1 34682U 93036YC  25336.39768701  .00005669  00000+0  12160-2 0  9991",
        "tle_line2": "2 34682  74.0384 102.6810 0018759 235.8907 180.8441 14.58760090885358"
      },
      "geometry": {
        "type": "Point",
        "coordinates": [
          131.37049997624763,
          60.50002912831908
        ]
      }
    },
    {
      "type": "Feature",
      "properties": {
        "norad_id": 34683,
        "name": "COSMOS 2251 DEB",
        "group": "cosmos-2251-debris",
        "lat": 27.904358834794213,
        "lon": 119.15534187282262,
        "alt_km": 690.7534959515151,
        "timestamp": "2025-12-03T06:58:43.636976+00:00",
        "meta_object_name": "COSMOS 2251 DEB",
        "meta_object_id": "1993-036YD",
        "meta_epoch": "2025-12-02T19:56:32.027136",
        "meta_mean_motion": 14.6424748,
        "meta_eccentricity": 0.001891,
        "meta_inclination": 74.028,
        "meta_ra_of_asc_node": 111.315,
        "meta_arg_of_pericenter": 226.2132,
        "meta_mean_anomaly": 259.9098,
        "meta_ephemeris_type": 0,
        "meta_classification_type": "U",
        "meta_norad_cat_id": 34683,
        "meta_element_set_no": 999,
        "meta_rev_at_epoch": 88203,
        "meta_bstar": 0.0018739,
        "meta_mean_motion_dot": 9.885e-05,
        "meta_mean_motion_ddot": 0,
        "tle_line1": "1 34683U 93036YD  25336.83092624  .00009885  00000+0  18739-2 0  9997",
        "tle_line2": "2 34683  74.0280 111.3150 0018910 226.2132 259.9098 14.64247480882039"
      },
      "geometry": {
        "type": "Point",
        "coordinates": [
          119.15534187282262,
          27.904358834794213
        ]
      }
    },
    {
      "type": "Feature",
      "properties": {
        "norad_id": 34685,
        "name": "COSMOS 2251 DEB",
        "group": "cosmos-2251-debris",
        "lat": 52.610779182896565,
        "lon": -171.24680625747428,
        "alt_km": 704.828601360955,
        "timestamp": "2025-12-03T06:58:43.636986+00:00",
        "meta_object_name": "COSMOS 2251 DEB",
        "meta_object_id": "1993-036YF",
        "meta_epoch": "2025-12-02T19:15:49.373856",
        "meta_mean_motion": 14.573601,
        "meta_eccentricity": 0.0014451,
        "meta_inclination": 74.0291,
        "meta_ra_of_asc_node": 167.6736,
        "meta_arg_of_pericenter": 271.601,
        "meta_mean_anomaly": 104.1854,
        "meta_ephemeris_type": 0,
        "meta_classification_type": "U",
        "meta_norad_cat_id": 34685,
        "meta_element_set_no": 999,
        "meta_rev_at_epoch": 88387,
        "meta_bstar": 0.0012133,
        "meta_mean_motion_dot": 5.481e-05,
        "meta_mean_motion_ddot": 0,
        "tle_line1": "1 34685U 93036YF  25336.80265479  .00005481  00000+0  12133-2 0  9996",
        "tle_line2": "2 34685  74.0291 167.6736 0014451 271.6010 104.1854 14.57360100883873"
      },
      "geometry": {
        "type": "Point",
        "coordinates": [
          -171.24680625747428,
          52.610779182896565
        ]
      }
    },
    {
      "type": "Feature",
      "properties": {
        "norad_id": 34689,
        "name": "COSMOS 2251 DEB",
        "group": "cosmos-2251-debris",
        "lat": -71.57444007905517,
        "lon": 118.71963812847277,
        "alt_km": 777.0382624316362,
        "timestamp": "2025-12-03T06:58:43.636996+00:00",
        "meta_object_name": "COSMOS 2251 DEB",
        "meta_object_id": "1993-036YK",
        "meta_epoch": "2025-12-01T04:52:05.077056",
        "meta_mean_motion": 14.04150485,
        "meta_eccentricity": 0.0229843,
        "meta_inclination": 74.0888,
        "meta_ra_of_asc_node": 243.4543,
        "meta_arg_of_pericenter": 314.8144,
        "meta_mean_anomaly": 197.2792,
        "meta_ephemeris_type": 0,
        "meta_classification_type": "U",
        "meta_norad_cat_id": 34689,
        "meta_element_set_no": 999,
        "meta_rev_at_epoch": 84179,
        "meta_bstar": 0.0056499,
        "meta_mean_motion_dot": 0.00011323,
        "meta_mean_motion_ddot": 0,
        "tle_line1": "1 34689U 93036YK  25335.20283654  .00011323  00000+0  56499-2 0  9993",
        "tle_line2": "2 34689  74.0888 243.4543 0229843 314.8144 197.2792 14.04150485841793"
      },
      "geometry": {
        "type": "Point",
        "coordinates": [
          118.71963812847277,
          -71.57444007905517
        ]
      }
    }
  ]
}